ERS-1                   
1 21574U 91050A   26091.28828638  .00000342  00000+0  12388-3 0  9990
2 21574  98.7862 110.0895 0032828 133.9544 226.4359 14.39466444818987
ARIANE 40 R/B           
1 21610U 91050F   26091.84023722  .00000351  00000+0  11745-3 0  9990
2 21610  98.1963 143.2025 0003315  27.9888 332.1480 14.42910501822335
INTERCOSMOS 25          
1 21819U 91086A   26091.85304858  .00001983  00000+0  38258-3 0  9993
2 21819  82.6001 296.0037 1486411  67.0264 308.0503 12.12079693499491
SL-8 R/B                
1 21876U 92008B   26091.69035039  .00000010  00000+0 -58305-5 0  9993
2 21876  82.9239 250.6638 0035871  71.3293 300.1076 13.75969691712584
SL-8 R/B                
1 21938U 92020B   26091.24290794  .00000043  00000+0  29410-4 0  9997
2 21938  82.9297 137.0156 0027891 232.9090 195.8132 13.75550633704230
USA 81                  
1 21949U 92023A   26091.78165093  .00000208  00000+0  69602-4 0  9994
2 21949  85.0041 118.1139 0001620  68.9041 291.2325 14.32375529 98097
COSMOS 2219             
1 22219U 92076A   26091.15717357 -.00000217  00000+0 -89199-4 0  9995
2 22219  71.0614 331.1053 0017773 173.5050 186.6307 14.14089614721558
SL-16 R/B               
1 22220U 92076B   26091.87489707 -.00000189  00000+0 -70562-4 0  9993
2 22220  70.9989 139.5380 0010823  53.4222 118.0943 14.16863028725114
COSMOS 2221             
1 22236U 92080A   26091.77636176  .00002461  00000+0  21506-3 0  9994
2 22236  82.5008 256.9592 0015636 113.2827 247.0043 14.96300649784240
SL-16 R/B               
1 22285U 92093B   26091.07123329  .00000064  00000+0  56891-4 0  9999
2 22285  71.0226 317.2836 0006583 272.1865  87.8504 14.15455812716329
COSMOS 2228             
1 22286U 92094A   26091.84409774  .00002765  00000+0  23554-3 0  9996
2 22286  82.5194 215.1409 0017100 220.4303 139.5650 14.97314489779525
SL-16 R/B               
1 22566U 93016B   26091.39661017  .00000205  00000+0  12953-3 0  9990
2 22566  71.0075 167.4935 0012350 284.9144  75.0611 14.15306538705380
